[{"OBJECT_NAME":"STARLINK-34904","OBJECT_ID":"2025-184B","EPOCH":"2026-03-09T17:20:54.889728","MEAN_MOTION":15.05634337,"ECCENTRICITY":0.00013054,"INCLINATION":97.602,"RA_OF_ASC_NODE":122.6597,"ARG_OF_PERICENTER":115.1435,"MEAN_ANOMALY":244.9928,"EPHEMERIS_TYPE":0,"CLASSIFICATION_TYPE":"U","NORAD_CAT_ID":65274,"ELEMENT_SET_NO":999,"REV_AT_EPOCH":3130,"BSTAR":0.0003313828,"MEAN_MOTION_DOT":4.722e-5,"MEAN_MOTION_DDOT":0},{"OBJECT_NAME":"HINCUBE","OBJECT_ID":"2013-066AF","EPOCH":"2026-03-09T20:37:05.272320","MEAN_MOTION":15.06793635,"ECCENTRICITY":0.00336438,"INCLINATION":97.7872,"RA_OF_ASC_NODE":36.0584,"ARG_OF_PERICENTER":185.5277,"MEAN_ANOMALY":174.5583,"EPHEMERIS_TYPE":0,"CLASSIFICATION_TYPE":"U","NORAD_CAT_ID":39445,"ELEMENT_SET_NO":999,"REV_AT_EPOCH":66456,"BSTAR":0.00067193541,"MEAN_MOTION_DOT":0.00010075,"MEAN_MOTION_DDOT":0}]
